CCSDS_OMM_VERS = 2.0
CREATION_DATE  = 
ORIGINATOR     = 

OBJECT_NAME    = SL-4 R/B
OBJECT_ID      = 2014-021B
CENTER_NAME    = EARTH
REF_FRAME      = TEME
TIME_SYSTEM    = UTC
MEAN_ELEMENT_THEORY = SGP/SGP4

EPOCH          = 2026-01-07T04:02:19.079232
MEAN_MOTION    = 15.37359571
ECCENTRICITY   = .00997459
INCLINATION    = 51.6076
RA_OF_ASC_NODE = 276.9581
ARG_OF_PERICENTER = 238.3088
MEAN_ANOMALY   = 120.8140

EPHEMERIS_TYPE = 0
CLASSIFICATION_TYPE = U
NORAD_CAT_ID   = 39679
ELEMENT_SET_NO = 999
REV_AT_EPOCH   = 64680
BSTAR          = .26543152E-3
MEAN_MOTION_DOT = .11259E-3
MEAN_MOTION_DDOT = 0

CCSDS_OMM_VERS = 2.0
CREATION_DATE  = 
ORIGINATOR     = 

OBJECT_NAME    = ALOS-2
OBJECT_ID      = 2014-029A
CENTER_NAME    = EARTH
REF_FRAME      = TEME
TIME_SYSTEM    = UTC
MEAN_ELEMENT_THEORY = SGP/SGP4

EPOCH          = 2026-01-07T12:16:04.550592
MEAN_MOTION    = 14.79482632
ECCENTRICITY   = .0001418
INCLINATION    = 97.9215
RA_OF_ASC_NODE = 106.9893
ARG_OF_PERICENTER = 95.0958
MEAN_ANOMALY   = 265.0416

EPHEMERIS_TYPE = 0
CLASSIFICATION_TYPE = U
NORAD_CAT_ID   = 39766
ELEMENT_SET_NO = 999
REV_AT_EPOCH   = 62782
BSTAR          = .16912E-3
MEAN_MOTION_DOT = .1212E-4
MEAN_MOTION_DDOT = 0

CCSDS_OMM_VERS = 2.0
CREATION_DATE  = 
ORIGINATOR     = 

OBJECT_NAME    = YAOGAN-29
OBJECT_ID      = 2015-069A
CENTER_NAME    = EARTH
REF_FRAME      = TEME
TIME_SYSTEM    = UTC
MEAN_ELEMENT_THEORY = SGP/SGP4

EPOCH          = 2026-01-07T12:40:35.514048
MEAN_MOTION    = 14.82917870
ECCENTRICITY   = .0001807
INCLINATION    = 98.0194
RA_OF_ASC_NODE = 35.7800
ARG_OF_PERICENTER = 137.6821
MEAN_ANOMALY   = 222.4531

EPHEMERIS_TYPE = 0
CLASSIFICATION_TYPE = U
NORAD_CAT_ID   = 41038
ELEMENT_SET_NO = 999
REV_AT_EPOCH   = 54681
BSTAR          = .65947E-4
MEAN_MOTION_DOT = .481E-5
MEAN_MOTION_DDOT = 0

CCSDS_OMM_VERS = 2.0
CREATION_DATE  = 
ORIGINATOR     = 

OBJECT_NAME    = ASTRO-H (HITOMI)
OBJECT_ID      = 2016-012A
CENTER_NAME    = EARTH
REF_FRAME      = TEME
TIME_SYSTEM    = UTC
MEAN_ELEMENT_THEORY = SGP/SGP4

EPOCH          = 2026-01-07T05:10:02.019360
MEAN_MOTION    = 15.09552948
ECCENTRICITY   = .0009543
INCLINATION    = 31.0009
RA_OF_ASC_NODE = 33.1139
ARG_OF_PERICENTER = 75.0453
MEAN_ANOMALY   = 285.1241

EPHEMERIS_TYPE = 0
CLASSIFICATION_TYPE = U
NORAD_CAT_ID   = 41337
ELEMENT_SET_NO = 999
REV_AT_EPOCH   = 54293
BSTAR          = .18558E-3
MEAN_MOTION_DOT = .3149E-4
MEAN_MOTION_DDOT = 0

CCSDS_OMM_VERS = 2.0
CREATION_DATE  = 
ORIGINATOR     = 

OBJECT_NAME    = HXMT (HUIYAN)
OBJECT_ID      = 2017-034A
CENTER_NAME    = EARTH
REF_FRAME      = TEME
TIME_SYSTEM    = UTC
MEAN_ELEMENT_THEORY = SGP/SGP4

EPOCH          = 2026-01-07T09:55:47.667360
MEAN_MOTION    = 15.16613468
ECCENTRICITY   = .0032854
INCLINATION    = 43.0154
RA_OF_ASC_NODE = 357.1232
ARG_OF_PERICENTER = 209.2557
MEAN_ANOMALY   = 150.6452

EPHEMERIS_TYPE = 0
CLASSIFICATION_TYPE = U
NORAD_CAT_ID   = 42758
ELEMENT_SET_NO = 999
REV_AT_EPOCH   = 47323
BSTAR          = .31003E-3
MEAN_MOTION_DOT = .6017E-4
MEAN_MOTION_DDOT = 0

CCSDS_OMM_VERS = 2.0
CREATION_DATE  = 
ORIGINATOR     = 

OBJECT_NAME    = CZ-2C R/B
OBJECT_ID      = 2018-054D
CENTER_NAME    = EARTH
REF_FRAME      = TEME
TIME_SYSTEM    = UTC
MEAN_ELEMENT_THEORY = SGP/SGP4

EPOCH          = 2026-01-07T08:54:39.777408
MEAN_MOTION    = 15.80673569
ECCENTRICITY   = .001088
INCLINATION    = 35.1338
RA_OF_ASC_NODE = 6.3080
ARG_OF_PERICENTER = 44.1956
MEAN_ANOMALY   = 315.9647

EPHEMERIS_TYPE = 0
CLASSIFICATION_TYPE = U
NORAD_CAT_ID   = 43521
ELEMENT_SET_NO = 999
REV_AT_EPOCH   = 41910
BSTAR          = .68014E-3
MEAN_MOTION_DOT = .138202E-2
MEAN_MOTION_DDOT = 0

CCSDS_OMM_VERS = 2.0
CREATION_DATE  = 
ORIGINATOR     = 

OBJECT_NAME    = SAOCOM 1A
OBJECT_ID      = 2018-076A
CENTER_NAME    = EARTH
REF_FRAME      = TEME
TIME_SYSTEM    = UTC
MEAN_ELEMENT_THEORY = SGP/SGP4

EPOCH          = 2026-01-07T12:40:56.277696
MEAN_MOTION    = 14.82167545
ECCENTRICITY   = .0001338
INCLINATION    = 97.8843
RA_OF_ASC_NODE = 196.5754
ARG_OF_PERICENTER = 84.2099
MEAN_ANOMALY   = 275.9267

EPHEMERIS_TYPE = 0
CLASSIFICATION_TYPE = U
NORAD_CAT_ID   = 43641
ELEMENT_SET_NO = 999
REV_AT_EPOCH   = 39230
BSTAR          = .17411E-3
MEAN_MOTION_DOT = .1334E-4
MEAN_MOTION_DDOT = 0

CCSDS_OMM_VERS = 2.0
CREATION_DATE  = 
ORIGINATOR     = 

OBJECT_NAME    = H-2A R/B
OBJECT_ID      = 2018-084L
CENTER_NAME    = EARTH
REF_FRAME      = TEME
TIME_SYSTEM    = UTC
MEAN_ELEMENT_THEORY = SGP/SGP4

EPOCH          = 2026-01-07T12:33:17.668224
MEAN_MOTION    = 15.38531190
ECCENTRICITY   = .0025865
INCLINATION    = 98.8761
RA_OF_ASC_NODE = 211.9697
ARG_OF_PERICENTER = 235.5041
MEAN_ANOMALY   = 124.3756

EPHEMERIS_TYPE = 0
CLASSIFICATION_TYPE = U
NORAD_CAT_ID   = 43682
ELEMENT_SET_NO = 999
REV_AT_EPOCH   = 39636
BSTAR          = .49566E-3
MEAN_MOTION_DOT = .18981E-3
MEAN_MOTION_DDOT = 0

CCSDS_OMM_VERS = 2.0
CREATION_DATE  = 
ORIGINATOR     = 

OBJECT_NAME    = SAOCOM 1B
OBJECT_ID      = 2020-059A
CENTER_NAME    = EARTH
REF_FRAME      = TEME
TIME_SYSTEM    = UTC
MEAN_ELEMENT_THEORY = SGP/SGP4

EPOCH          = 2026-01-07T11:48:40.103712
MEAN_MOTION    = 14.82175362
ECCENTRICITY   = .0001483
INCLINATION    = 97.8842
RA_OF_ASC_NODE = 195.6390
ARG_OF_PERICENTER = 85.4694
MEAN_ANOMALY   = 274.6689

EPHEMERIS_TYPE = 0
CLASSIFICATION_TYPE = U
NORAD_CAT_ID   = 46265
ELEMENT_SET_NO = 999
REV_AT_EPOCH   = 28968
BSTAR          = .11737E-3
MEAN_MOTION_DOT = .883E-5
MEAN_MOTION_DDOT = 0

CCSDS_OMM_VERS = 2.0
CREATION_DATE  = 
ORIGINATOR     = 

OBJECT_NAME    = CSS (TIANHE)
OBJECT_ID      = 2021-035A
CENTER_NAME    = EARTH
REF_FRAME      = TEME
TIME_SYSTEM    = UTC
MEAN_ELEMENT_THEORY = SGP/SGP4

EPOCH          = 2026-01-07T09:23:04.094304
MEAN_MOTION    = 15.60258564
ECCENTRICITY   = .0011067
INCLINATION    = 41.4649
RA_OF_ASC_NODE = 220.8523
ARG_OF_PERICENTER = 237.7599
MEAN_ANOMALY   = 122.2167

EPHEMERIS_TYPE = 0
CLASSIFICATION_TYPE = U
NORAD_CAT_ID   = 48274
ELEMENT_SET_NO = 999
REV_AT_EPOCH   = 26803
BSTAR          = .16152E-3
MEAN_MOTION_DOT = .13286E-3
MEAN_MOTION_DDOT = 0

CCSDS_OMM_VERS = 2.0
CREATION_DATE  = 
ORIGINATOR     = 

OBJECT_NAME    = COSMOS 2550
OBJECT_ID      = 2021-056A
CENTER_NAME    = EARTH
REF_FRAME      = TEME
TIME_SYSTEM    = UTC
MEAN_ELEMENT_THEORY = SGP/SGP4

EPOCH          = 2026-01-07T16:17:16.629216
MEAN_MOTION    = 15.33822397
ECCENTRICITY   = .0008383
INCLINATION    = 67.1413
RA_OF_ASC_NODE = 225.4766
ARG_OF_PERICENTER = 269.3865
MEAN_ANOMALY   = 90.6329

EPHEMERIS_TYPE = 0
CLASSIFICATION_TYPE = U
NORAD_CAT_ID   = 48865
ELEMENT_SET_NO = 999
REV_AT_EPOCH   = 25410
BSTAR          = -.10846E-7
MEAN_MOTION_DOT = -.192E-5
MEAN_MOTION_DDOT = 0

CCSDS_OMM_VERS = 2.0
CREATION_DATE  = 
ORIGINATOR     = 

OBJECT_NAME    = CZ-2C R/B
OBJECT_ID      = 2022-058K
CENTER_NAME    = EARTH
REF_FRAME      = TEME
TIME_SYSTEM    = UTC
MEAN_ELEMENT_THEORY = SGP/SGP4

EPOCH          = 2026-01-07T03:44:24.684000
MEAN_MOTION    = 15.50095764
ECCENTRICITY   = .0043515
INCLINATION    = 50.1899
RA_OF_ASC_NODE = 273.7958
ARG_OF_PERICENTER = 302.6398
MEAN_ANOMALY   = 57.0375

EPHEMERIS_TYPE = 0
CLASSIFICATION_TYPE = U
NORAD_CAT_ID   = 52794
ELEMENT_SET_NO = 999
REV_AT_EPOCH   = 20057
BSTAR          = .50588871E-3
MEAN_MOTION_DOT = .29785E-3
MEAN_MOTION_DDOT = 0

