SL-4 R/B                
1 39679U 14021B   26007.16827638  .00011259  00000+0  26543-3 0  9998
2 39679  51.6076 276.9581 0099745 238.3088 120.8140 15.37359571646801
ALOS-2                  
1 39766U 14029A   26007.51116378  .00001212  00000+0  16912-3 0  9991
2 39766  97.9215 106.9893 0001418  95.0958 265.0416 14.79482632627827
YAOGAN-29               
1 41038U 15069A   26007.52818882  .00000481  00000+0  65947-4 0  9991
2 41038  98.0194  35.7800 0001807 137.6821 222.4531 14.82917870546816
ASTRO-H (HITOMI)        
1 41337U 16012A   26007.21530115  .00003149  00000+0  18558-3 0  9997
2 41337  31.0009  33.1139 0009543  75.0453 285.1241 15.09552948542932
HXMT (HUIYAN)           
1 42758U 17034A   26007.41374615  .00006017  00000+0  31003-3 0  9990
2 42758  43.0154 357.1232 0032854 209.2557 150.6452 15.16613468473233
CZ-2C R/B               
1 43521U 18054D   26007.37129372  .00138202  00000+0  68014-3 0  9999
2 43521  35.1338   6.3080 0010880  44.1956 315.9647 15.80673569419103
SAOCOM 1A               
1 43641U 18076A   26007.52842914  .00001334  00000+0  17411-3 0  9997
2 43641  97.8843 196.5754 0001338  84.2099 275.9267 14.82167545392301
H-2A R/B                
1 43682U 18084L   26007.52312116  .00018981  00000+0  49566-3 0  9999
2 43682  98.8761 211.9697 0025865 235.5041 124.3756 15.38531190396366
SAOCOM 1B               
1 46265U 20059A   26007.49213083  .00000883  00000+0  11737-3 0  9994
2 46265  97.8842 195.6390 0001483  85.4694 274.6689 14.82175362289682
CSS (TIANHE)            
1 48274U 21035A   26007.39101961  .00013286  00000+0  16152-3 0  9998
2 48274  41.4649 220.8523 0011067 237.7599 122.2167 15.60258564268036
COSMOS 2550             
1 48865U 21056A   26007.67866469 -.00000192  00000+0 -10846-7 0  9991
2 48865  67.1413 225.4766 0008383 269.3865  90.6329 15.33822397254102
CZ-2C R/B               
1 52794U 22058K   26007.15584125  .00029785  00000+0  50589-3 0  9990
2 52794  50.1899 273.7958 0043515 302.6398  57.0375 15.50095764200574
